{"type": "FeatureCollection", "features": [ {"type": "Feature", "properties": {"norad_id": 39155, "name": "COSMOS 2485 (747)", "group": "glo-ops", "lat": 53.54180631026467, "lon": 117.9947556718614, "alt_km": 19185.875636366512, "timestamp": "2025-12-21T14:40:48.177706+00:00", "meta": {"OBJECT_NAME": "COSMOS 2485 (747)", "OBJECT_ID": "2013-019A", "EPOCH": "2025-12-20T02:56:15.241632", "MEAN_MOTION": 2.1310322, "ECCENTRICITY": 0.0024876, "INCLINATION": 65.3174, "RA_OF_ASC_NODE": 79.6189, "ARG_OF_PERICENTER": 230.2075, "MEAN_ANOMALY": 129.6042, "EPHEMERIS_TYPE": 0, "CLASSIFICATION_TYPE": "U", "NORAD_CAT_ID": 39155, "ELEMENT_SET_NO": 999, "REV_AT_EPOCH": 9846, "BSTAR": 0, "MEAN_MOTION_DOT": -2e-07, "MEAN_MOTION_DDOT": 0}, "tle": {"line1": "1 39155U 13019A   25354.12239863 -.00000020  00000+0  00000+0 0  9991", "line2": "2 39155  65.3174  79.6189 0024876 230.2075 129.6042  2.13103220 98462"}}, "geometry": {"type": "Point", "coordinates": [117.9947556718614, 53.54180631026467]}}, {"type": "Feature", "properties": {"norad_id": 39620, "name": "COSMOS 2492 (754)", "group": "glo-ops", "lat": 65.05203924133882, "lon": 60.17879383001694, "alt_km": 19151.304283787395, "timestamp": "2025-12-21T14:40:48.177717+00:00", "meta": {"OBJECT_NAME": "COSMOS 2492 (754)", "OBJECT_ID": "2014-012A", "EPOCH": "2025-12-21T00:28:06.027744", "MEAN_MOTION": 2.13103414, "ECCENTRICITY": 0.00142344, "INCLINATION": 65.403, "RA_OF_ASC_NODE": 319.9894, "ARG_OF_PERICENTER": 312.8453, "MEAN_ANOMALY": 47.0277, "EPHEMERIS_TYPE": 0, "CLASSIFICATION_TYPE": "U", "NORAD_CAT_ID": 39620, "ELEMENT_SET_NO": 999, "REV_AT_EPOCH": 9144, "BSTAR": 0, "MEAN_MOTION_DOT": -4.8e-07, "MEAN_MOTION_DDOT": 0}, "tle": {"line1": "1 39620U 14012A   25355.01951421 -.00000048  00000+0  00000+0 0  9992", "line2": "2 39620  65.4030 319.9894 0014234 312.8453  47.0277  2.13103414 91447"}}, "geometry": {"type": "Point", "coordinates": [60.17879383001694, 65.05203924133882]}}, {"type": "Feature", "properties": {"norad_id": 40001, "name": "COSMOS 2500 (755)", "group": "glo-ops", "lat": -33.765936175758455, "lon": -58.16446837859562, "alt_km": 19138.4150449997, "timestamp": "2025-12-21T14:40:48.177728+00:00", "meta": {"OBJECT_NAME": "COSMOS 2500 (755)", "OBJECT_ID": "2014-032A", "EPOCH": "2025-12-21T04:35:55.034016", "MEAN_MOTION": 2.13106226, "ECCENTRICITY": 0.00077382, "INCLINATION": 65.3386, "RA_OF_ASC_NODE": 319.7453, "ARG_OF_PERICENTER": 219.3399, "MEAN_ANOMALY": 140.5971, "EPHEMERIS_TYPE": 0, "CLASSIFICATION_TYPE": "U", "NORAD_CAT_ID": 40001, "ELEMENT_SET_NO": 999, "REV_AT_EPOCH": 8966, "BSTAR": 0, "MEAN_MOTION_DOT": -4.7e-07, "MEAN_MOTION_DDOT": 0}, "tle": {"line1": "1 40001U 14032A   25355.19160919 -.00000047  00000+0  00000+0 0  9991", "line2": "2 40001  65.3386 319.7453 0007738 219.3399 140.5971  2.13106226 89660"}}, "geometry": {"type": "Point", "coordinates": [-58.16446837859562, -33.765936175758455]}}, {"type": "Feature", "properties": {"norad_id": 40315, "name": "COSMOS 2501 (702K)", "group": "glo-ops", "lat": 48.96049580149, "lon": -18.26887247397153, "alt_km": 19116.744745538203, "timestamp": "2025-12-21T14:40:48.177740+00:00", "meta": {"OBJECT_NAME": "COSMOS 2501 (702K)", "OBJECT_ID": "2014-075A", "EPOCH": "2025-12-19T02:31:27.452640", "MEAN_MOTION": 2.13101513, "ECCENTRICITY": 0.0020099, "INCLINATION": 63.6146, "RA_OF_ASC_NODE": 196.6046, "ARG_OF_PERICENTER": 204.1838, "MEAN_ANOMALY": 155.7988, "EPHEMERIS_TYPE": 0, "CLASSIFICATION_TYPE": "U", "NORAD_CAT_ID": 40315, "ELEMENT_SET_NO": 999, "REV_AT_EPOCH": 8601, "BSTAR": 0, "MEAN_MOTION_DOT": 1.06e-06, "MEAN_MOTION_DDOT": 0}, "tle": {"line1": "1 40315U 14075A   25353.10517885  .00000106  00000+0  00000+0 0  9998", "line2": "2 40315  63.6146 196.6046 0020099 204.1838 155.7988  2.13101513 86014"}}, "geometry": {"type": "Point", "coordinates": [-18.26887247397153, 48.96049580149]}}, {"type": "Feature", "properties": {"norad_id": 41330, "name": "COSMOS 2514 (751)", "group": "glo-ops", "lat": 39.9088365022506, "lon": 116.26832368345708, "alt_km": 19122.69545454376, "timestamp": "2025-12-21T14:40:48.177751+00:00", "meta": {"OBJECT_NAME": "COSMOS 2514 (751)", "OBJECT_ID": "2016-008A", "EPOCH": "2025-12-20T23:11:21.347520", "MEAN_MOTION": 2.13102678, "ECCENTRICITY": 0.00117473, "INCLINATION": 65.1291, "RA_OF_ASC_NODE": 319.1224, "ARG_OF_PERICENTER": 220.1373, "MEAN_ANOMALY": 139.7688, "EPHEMERIS_TYPE": 0, "CLASSIFICATION_TYPE": "U", "NORAD_CAT_ID": 41330, "ELEMENT_SET_NO": 999, "REV_AT_EPOCH": 7682, "BSTAR": 0, "MEAN_MOTION_DOT": -4.9e-07, "MEAN_MOTION_DDOT": 0}, "tle": {"line1": "1 41330U 16008A   25354.96621930 -.00000049  00000+0  00000+0 0  9993", "line2": "2 41330  65.1291 319.1224 0011747 220.1373 139.7688  2.13102678 76822"}}, "geometry": {"type": "Point", "coordinates": [116.26832368345708, 39.9088365022506]}}, {"type": "Feature", "properties": {"norad_id": 42939, "name": "COSMOS 2522 (752)", "group": "glo-ops", "lat": -62.03766832353511, "lon": 84.38759297551361, "alt_km": 19123.229280030515, "timestamp": "2025-12-21T14:40:48.177762+00:00", "meta": {"OBJECT_NAME": "COSMOS 2522 (752)", "OBJECT_ID": "2017-055A", "EPOCH": "2025-12-20T19:18:35.639424", "MEAN_MOTION": 2.13102071, "ECCENTRICITY": 0.00063061, "INCLINATION": 64.0764, "RA_OF_ASC_NODE": 197.9542, "ARG_OF_PERICENTER": 223.7674, "MEAN_ANOMALY": 136.256, "EPHEMERIS_TYPE": 0, "CLASSIFICATION_TYPE": "U", "NORAD_CAT_ID": 42939, "ELEMENT_SET_NO": 999, "REV_AT_EPOCH": 6417, "BSTAR": 0, "MEAN_MOTION_DOT": 9.9e-07, "MEAN_MOTION_DDOT": 0}, "tle": {"line1": "1 42939U 17055A   25354.80457916  .00000099  00000+0  00000+0 0  9990", "line2": "2 42939  64.0764 197.9542 0006306 223.7674 136.2560  2.13102071 64177"}}, "geometry": {"type": "Point", "coordinates": [84.38759297551361, -62.03766832353511]}}, {"type": "Feature", "properties": {"norad_id": 43508, "name": "COSMOS 2527 (756)", "group": "glo-ops", "lat": -59.216476703182515, "lon": 29.94711836363637, "alt_km": 19125.642748131693, "timestamp": "2025-12-21T14:40:48.177773+00:00", "meta": {"OBJECT_NAME": "COSMOS 2527 (756)", "OBJECT_ID": "2018-053A", "EPOCH": "2025-12-20T18:22:11.791200", "MEAN_MOTION": 2.13102375, "ECCENTRICITY": 0.00088721, "INCLINATION": 65.4768, "RA_OF_ASC_NODE": 79.8631, "ARG_OF_PERICENTER": 227.1028, "MEAN_ANOMALY": 132.8569, "EPHEMERIS_TYPE": 0, "CLASSIFICATION_TYPE": "U", "NORAD_CAT_ID": 43508, "ELEMENT_SET_NO": 999, "REV_AT_EPOCH": 5847, "BSTAR": 0, "MEAN_MOTION_DOT": -1.4e-07, "MEAN_MOTION_DDOT": 0}, "tle": {"line1": "1 43508U 18053A   25354.76541425 -.00000014  00000+0  00000+0 0  9994", "line2": "2 43508  65.4768  79.8631 0008872 227.1028 132.8569  2.13102375 58471"}}, "geometry": {"type": "Point", "coordinates": [29.94711836363637, -59.216476703182515]}}, {"type": "Feature", "properties": {"norad_id": 43687, "name": "COSMOS 2529 (757)", "group": "glo-ops", "lat": -30.628923509847688, "lon": 35.175785831528415, "alt_km": 19120.11146874655, "timestamp": "2025-12-21T14:40:48.177784+00:00", "meta": {"OBJECT_NAME": "COSMOS 2529 (757)", "OBJECT_ID": "2018-086A", "EPOCH": "2025-12-20T20:42:25.544160", "MEAN_MOTION": 2.13102145, "ECCENTRICITY": 0.00070209, "INCLINATION": 64.2923, "RA_OF_ASC_NODE": 198.6139, "ARG_OF_PERICENTER": 253.6005, "MEAN_ANOMALY": 106.3966, "EPHEMERIS_TYPE": 0, "CLASSIFICATION_TYPE": "U", "NORAD_CAT_ID": 43687, "ELEMENT_SET_NO": 999, "REV_AT_EPOCH": 5548, "BSTAR": 0, "MEAN_MOTION_DOT": 9.8e-07, "MEAN_MOTION_DDOT": 0}, "tle": {"line1": "1 43687U 18086A   25354.86279565  .00000098  00000+0  00000+0 0  9993", "line2": "2 43687  64.2923 198.6139 0007020 253.6005 106.3966  2.13102145 55485"}}, "geometry": {"type": "Point", "coordinates": [35.175785831528415, -30.628923509847688]}}, {"type": "Feature", "properties": {"norad_id": 44299, "name": "COSMOS 2534 (758)", "group": "glo-ops", "lat": -9.945949972092158, "lon": -166.23363317526488, "alt_km": 19122.15389670822, "timestamp": "2025-12-21T14:40:48.177795+00:00", "meta": {"OBJECT_NAME": "COSMOS 2534 (758)", "OBJECT_ID": "2019-030A", "EPOCH": "2025-12-18T18:30:09.690336", "MEAN_MOTION": 2.13102412, "ECCENTRICITY": 0.0008748, "INCLINATION": 64.3658, "RA_OF_ASC_NODE": 198.6898, "ARG_OF_PERICENTER": 284.2192, "MEAN_ANOMALY": 45.4012, "EPHEMERIS_TYPE": 0, "CLASSIFICATION_TYPE": "U", "NORAD_CAT_ID": 44299, "ELEMENT_SET_NO": 999, "REV_AT_EPOCH": 5107, "BSTAR": 0, "MEAN_MOTION_DOT": 1.08e-06, "MEAN_MOTION_DDOT": 0}, "tle": {"line1": "1 44299U 19030A   25352.77094549  .00000108  00000+0  00000+0 0  9990", "line2": "2 44299  64.3658 198.6898 0008748 284.2192  45.4012  2.13102412 51071"}}, "geometry": {"type": "Point", "coordinates": [-166.23363317526488, -9.945949972092158]}}, {"type": "Feature", "properties": {"norad_id": 44850, "name": "COSMOS 2544 (759)", "group": "glo-ops", "lat": -25.510302472686757, "lon": 67.1080124408126, "alt_km": 19128.21550451033, "timestamp": "2025-12-21T14:40:48.177806+00:00", "meta": {"OBJECT_NAME": "COSMOS 2544 (759)", "OBJECT_ID": "2019-088A", "EPOCH": "2025-12-21T04:18:06.689376", "MEAN_MOTION": 2.13102125, "ECCENTRICITY": 0.00141884, "INCLINATION": 65.4644, "RA_OF_ASC_NODE": 79.6762, "ARG_OF_PERICENTER": 250.1842, "MEAN_ANOMALY": 109.6995, "EPHEMERIS_TYPE": 0, "CLASSIFICATION_TYPE": "U", "NORAD_CAT_ID": 44850, "ELEMENT_SET_NO": 999, "REV_AT_EPOCH": 4692, "BSTAR": 0, "MEAN_MOTION_DOT": -1e-07, "MEAN_MOTION_DDOT": 0}, "tle": {"line1": "1 44850U 19088A   25355.17924409 -.00000010  00000+0  00000+0 0  9993", "line2": "2 44850  65.4644  79.6762 0014188 250.1842 109.6995  2.13102125 46920"}}, "geometry": {"type": "Point", "coordinates": [67.1080124408126, -25.510302472686757]}}]}